445P/Lemmon-PANSTARRS,e,1.0885,126.5925,213.4491,4.053440,0.1207726,0.41405158,56.9985,12/02.0/2023,2000,g 15.0,4.0
# From MPEC 2022-WQ9
446P/McNaught,e,16.6142,336.3854,344.6897,4.566792,0.1009920,0.64683187,55.7032,12/02.0/2023,2000,g 16.5,4.0
# From MPEC 2022-YB4
447P/Sheppard-Tholen,e,7.4365,302.6444,97.7391,5.634909,0.0736841,0.17874229,34.6111,12/02.0/2023,2000,g 12.0,4.0
# From MPEC 2023-A50
448P/PANSTARRS,e,12.1510,161.7556,218.7439,3.634579,0.1422404,0.41875000,64.2162,12/02.0/2023,2000,g 16.0,4.0
# From MPEC 2022-UE6
449P/Leonard,e,15.4661,242.5405,176.6990,3.600088,0.1442894,0.47982797,159.0965,12/02.0/2023,2000,g 16.0,4.0
# From MPEC 2023-RF3
450P/LONEOS,e,10.5550,124.8122,21.2677,7.973666,0.0437741,0.31166819,310.0077,12/02.0/2023,2000,g  6.5,4.0
# From MPEC 2023-HD1
451P/Christensen,e,26.4795,300.9000,186.7137,6.342810,0.0616995,0.55879912,22.7925,12/02.0/2023,2000,g 15.5,4.0
# From MPEC 2023-J29
452P/Sheppard-Jewitt,e,6.4216,123.6897,37.0406,7.300541,0.0499657,0.42770512,11.0154,12/02.0/2023,2000,g  9.0,4.0
# From MPEC 2023-RF3
453P/WISE-Lemmon,e,27.0681,42.8957,70.8433,5.461194,0.0772276,0.58277663,21.1542,12/02.0/2023,2000,g 14.0,4.0
# From MPEC 2023-CD7
454P/PANSTARRS,e,19.8127,54.5825,20.0640,4.207702,0.1141922,0.36155297,56.3816,12/02.0/2023,2000,g 14.0,4.0
# From MPEC 2022-Y14
455P/PANSTARRS,e,14.1376,146.1846,237.5125,3.152922,0.1760493,0.30492894,49.2522,12/02.0/2023,2000,g 17.0,4.0
# From MPEC 2023-N01
456P/PANSTARRS,e,16.9632,243.1726,233.9415,3.169755,0.1746488,0.11778911,272.0064,12/02.0/2023,2000,g 13.5,4.0
# From MPEC 2023-F99
457P/Lemmon-PANSTARRS,e,5.2253,175.9741,104.4189,2.646052,0.2289847,0.11872956,299.9030,12/02.0/2023,2000,g 15.5,4.0
# From MPEC 2023-HD1
458P/Jahn,e,13.6274,1.5874,104.8182,3.857163,0.1301074,0.31704778,51.7494,12/02.0/2023,2000,g 17.3,4.0
# From MPEC 2023-UR6
459P/Catalina,e,7.1725,256.9916,205.1952,3.239464,0.1690419,0.57766338,47.9391,12/02.0/2023,2000,g 15.5,4.0
# From MPEC 2023-G14
460P/PANSTARRS,e,18.8951,180.5153,351.9587,3.027073,0.1871413,0.66403207,168.1541,12/02.0/2023,2000,g 21.0,4.0
# From MPEC 2023-J95
461P/WISE,e,18.4112,194.3770,174.8226,3.143051,0.1768793,0.57019915,139.3954,12/02.0/2023,2000,g 18.5,4.0
# From MPEC 2023-JA3
462P/LONEOS-PANSTARRS,e,7.0256,322.8033,4.3947,4.880402,0.0914157,0.57827800,44.5197,12/02.0/2023,2000,g 17.0,4.0
# From MPEC 2023-RF3
463P/NEOWISE,e,29.2827,283.2090,216.3607,2.974554,0.1921194,0.82558179,47.5254,12/02.0/2023,2000,g 18.0,4.0
# From MPEC 2023-RF3
464P/PANSTARRS,e,21.6654,309.5830,267.6649,4.687193,0.0971258,0.28053620,26.9102,12/02.0/2023,2000,g 10.5,4.0
# From MPEC 2023-W26
465P/Hill,e,25.8716,218.0113,141.1996,6.037453,0.0664391,0.61420451,13.6999,12/02.0/2023,2000,g 12.5,4.0
# From MPEC 2023-VM5
466P/PANSTARRS,e,12.2350,119.8515,196.7481,4.044499,0.1211733,0.46721611,25.7175,12/02.0/2023,2000,g 14.0,4.0
# From MPEC 2023-T65
467P/LINEAR-Grauer,e,2.4788,43.2721,267.8290,5.831788,0.0699844,0.05544094,25.5742,12/02.0/2023,2000,g  9.0,4.0
# From MPEC 2023-W26
468P/SidingSpring,e,50.4456,356.1244,322.5555,7.123494,0.0518399,0.44551473,0.5671,12/02.0/2023,2000,g 11.5,4.0
# From MPEC 2023-P35
469P/PANSTARRS,e,20.1742,178.9647,43.5375,4.339722,0.1090213,0.30744873,279.5642,12/02.0/2023,2000,g 13.5,4.0
# From MPEC 2023-VM5
470P/PANSTARRS,e,8.8390,246.1817,152.0454,4.476331,0.1040688,0.39041114,358.3112,12/02.0/2023,2000,g 15.5,4.0
# From MPEC 2023-W26
471P/,e,4.7909,283.3416,94.9588,5.707849,0.0722762,0.62798499,358.6778,12/02.0/2023,2000,g 12.0,4.0
# From MPC107687
1I/`Oumuamua,h,09/09.4886/2017,122.6778,24.5997,241.6845,1.199252,0.255240,2000,23.0,2.0
# From MPEC 2023-L37
2I/Borisov,h,12/08.5548/2019,44.0527,308.1480,209.1251,3.356633,2.006548,2000,11.0,4.0
